{"fetched_at":"2026-07-05T17:36:28.217Z","source":"https://celestrak.org/NORAD/elements/gp.php?NAME=GLOBAL&FORMAT=JSON","constellation":"blacksky","records":[{"OBJECT_NAME":"GLOBAL-2","OBJECT_ID":"2018-099BG","EPOCH":"2026-07-05T01:09:46.596672","CLASSIFICATION_TYPE":"U","MEAN_MOTION":15.08784803,"ECCENTRICITY":0.00075191,"INCLINATION":97.3543,"RA_OF_ASC_NODE":221.819,"ARG_OF_PERICENTER":94.1373,"MEAN_ANOMALY":266.0716,"EPHEMERIS_TYPE":0,"NORAD_CAT_ID":43812,"ELEMENT_SET_NO":999,"REV_AT_EPOCH":41460,"BSTAR":0.00037109829,"MEAN_MOTION_DOT":0.00005777,"MEAN_MOTION_DDOT":0},{"OBJECT_NAME":"GLOBAL-4","OBJECT_ID":"2019-054E","EPOCH":"2026-07-04T13:33:30.699360","CLASSIFICATION_TYPE":"U","MEAN_MOTION":15.66079115,"ECCENTRICITY":0.00039348,"INCLINATION":45.0044,"RA_OF_ASC_NODE":136.0113,"ARG_OF_PERICENTER":113.45,"MEAN_ANOMALY":246.6811,"EPHEMERIS_TYPE":0,"NORAD_CAT_ID":44499,"ELEMENT_SET_NO":999,"REV_AT_EPOCH":38308,"BSTAR":0.0010028234,"MEAN_MOTION_DOT":0.00106521,"MEAN_MOTION_DDOT":0},{"OBJECT_NAME":"GLOBAL-9","OBJECT_ID":"2021-023G","EPOCH":"2026-07-04T22:43:54.802848","CLASSIFICATION_TYPE":"U","MEAN_MOTION":15.47277993,"ECCENTRICITY":0.00026698,"INCLINATION":44.9797,"RA_OF_ASC_NODE":150.6558,"ARG_OF_PERICENTER":82.8648,"MEAN_ANOMALY":277.2546,"EPHEMERIS_TYPE":0,"NORAD_CAT_ID":47971,"ELEMENT_SET_NO":999,"REV_AT_EPOCH":29769,"BSTAR":0.0006493826,"MEAN_MOTION_DOT":0.00033643,"MEAN_MOTION_DDOT":0},{"OBJECT_NAME":"GLOBAL-14","OBJECT_ID":"2021-106A","EPOCH":"2026-07-05T04:19:56.187552","CLASSIFICATION_TYPE":"U","MEAN_MOTION":15.51457718,"ECCENTRICITY":0.00157743,"INCLINATION":42.0026,"RA_OF_ASC_NODE":184.0773,"ARG_OF_PERICENTER":154.539,"MEAN_ANOMALY":205.6235,"EPHEMERIS_TYPE":0,"NORAD_CAT_ID":49469,"ELEMENT_SET_NO":999,"REV_AT_EPOCH":26092,"BSTAR":0.00059530529,"MEAN_MOTION_DOT":0.0003609,"MEAN_MOTION_DDOT":0},{"OBJECT_NAME":"GLOBAL-12","OBJECT_ID":"2021-115BA","EPOCH":"2026-07-04T21:17:07.008288","CLASSIFICATION_TYPE":"U","MEAN_MOTION":15.54777629,"ECCENTRICITY":0.00026674,"INCLINATION":53.1967,"RA_OF_ASC_NODE":319.368,"ARG_OF_PERICENTER":70.2204,"MEAN_ANOMALY":289.9095,"EPHEMERIS_TYPE":0,"NORAD_CAT_ID":49772,"ELEMENT_SET_NO":999,"REV_AT_EPOCH":25865,"BSTAR":0.00086830683,"MEAN_MOTION_DOT":0.00058736,"MEAN_MOTION_DDOT":0},{"OBJECT_NAME":"GLOBAL-13","OBJECT_ID":"2021-115BB","EPOCH":"2026-07-05T00:32:19.843296","CLASSIFICATION_TYPE":"U","MEAN_MOTION":15.46797722,"ECCENTRICITY":0.00017834,"INCLINATION":53.1979,"RA_OF_ASC_NODE":329.7615,"ARG_OF_PERICENTER":147.8913,"MEAN_ANOMALY":212.2204,"EPHEMERIS_TYPE":0,"NORAD_CAT_ID":49773,"ELEMENT_SET_NO":999,"REV_AT_EPOCH":25852,"BSTAR":0.00068605917,"MEAN_MOTION_DOT":0.00034676,"MEAN_MOTION_DDOT":0},{"OBJECT_NAME":"GLOBAL-17","OBJECT_ID":"2021-120A","EPOCH":"2026-07-04T18:39:25.496352","CLASSIFICATION_TYPE":"U","MEAN_MOTION":15.53259005,"ECCENTRICITY":0.00144792,"INCLINATION":41.9952,"RA_OF_ASC_NODE":304.4092,"ARG_OF_PERICENTER":12.0362,"MEAN_ANOMALY":348.0827,"EPHEMERIS_TYPE":0,"NORAD_CAT_ID":49949,"ELEMENT_SET_NO":999,"REV_AT_EPOCH":25763,"BSTAR":0.00075004318,"MEAN_MOTION_DOT":0.00048674,"MEAN_MOTION_DDOT":0},{"OBJECT_NAME":"GLOBAL-16","OBJECT_ID":"2021-120B","EPOCH":"2026-07-05T06:22:34.783104","CLASSIFICATION_TYPE":"U","MEAN_MOTION":15.51114082,"ECCENTRICITY":0.00126533,"INCLINATION":41.9961,"RA_OF_ASC_NODE":305.5704,"ARG_OF_PERICENTER":5.0078,"MEAN_ANOMALY":355.0891,"EPHEMERIS_TYPE":0,"NORAD_CAT_ID":49950,"ELEMENT_SET_NO":999,"REV_AT_EPOCH":25765,"BSTAR":0.00064475451,"MEAN_MOTION_DOT":0.00038576,"MEAN_MOTION_DDOT":0},{"OBJECT_NAME":"GLOBAL-18","OBJECT_ID":"2022-034B","EPOCH":"2026-07-04T09:06:44.409888","CLASSIFICATION_TYPE":"U","MEAN_MOTION":15.46866757,"ECCENTRICITY":0.00040314,"INCLINATION":52.98,"RA_OF_ASC_NODE":174.4342,"ARG_OF_PERICENTER":353.0444,"MEAN_ANOMALY":7.0505,"EPHEMERIS_TYPE":0,"NORAD_CAT_ID":52196,"ELEMENT_SET_NO":999,"REV_AT_EPOCH":23962,"BSTAR":0.00050180487,"MEAN_MOTION_DOT":0.00025284,"MEAN_MOTION_DDOT":0},{"OBJECT_NAME":"GLOBAL-19","OBJECT_ID":"2023-041B","EPOCH":"2026-07-05T05:07:56.123328","CLASSIFICATION_TYPE":"U","MEAN_MOTION":15.38492085,"ECCENTRICITY":0.00078759,"INCLINATION":42.0015,"RA_OF_ASC_NODE":96.732,"ARG_OF_PERICENTER":149.0388,"MEAN_ANOMALY":211.0917,"EPHEMERIS_TYPE":0,"NORAD_CAT_ID":55982,"ELEMENT_SET_NO":999,"REV_AT_EPOCH":18470,"BSTAR":0.00061861034,"MEAN_MOTION_DOT":0.00023868,"MEAN_MOTION_DDOT":0},{"OBJECT_NAME":"GLOBAL-5","OBJECT_ID":"2023-041C","EPOCH":"2026-07-05T02:48:08.850240","CLASSIFICATION_TYPE":"U","MEAN_MOTION":15.38499402,"ECCENTRICITY":0.00067723,"INCLINATION":42.0004,"RA_OF_ASC_NODE":96.8265,"ARG_OF_PERICENTER":142.1021,"MEAN_ANOMALY":218.0296,"EPHEMERIS_TYPE":0,"NORAD_CAT_ID":55983,"ELEMENT_SET_NO":999,"REV_AT_EPOCH":18469,"BSTAR":0.00060207744,"MEAN_MOTION_DOT":0.00023221,"MEAN_MOTION_DDOT":0},{"OBJECT_NAME":"GLOBAL-31","OBJECT_ID":"2025-033B","EPOCH":"2026-07-05T04:22:39.957888","CLASSIFICATION_TYPE":"U","MEAN_MOTION":15.38171179,"ECCENTRICITY":0.00108278,"INCLINATION":58.9969,"RA_OF_ASC_NODE":243.4223,"ARG_OF_PERICENTER":52.4352,"MEAN_ANOMALY":307.7706,"EPHEMERIS_TYPE":0,"NORAD_CAT_ID":63027,"ELEMENT_SET_NO":999,"REV_AT_EPOCH":7709,"BSTAR":0.00051770495,"MEAN_MOTION_DOT":0.000194,"MEAN_MOTION_DDOT":0},{"OBJECT_NAME":"GLOBAL-32","OBJECT_ID":"2025-118B","EPOCH":"2026-07-05T01:30:01.124928","CLASSIFICATION_TYPE":"U","MEAN_MOTION":15.39087371,"ECCENTRICITY":0.00155872,"INCLINATION":58.9931,"RA_OF_ASC_NODE":60.1772,"ARG_OF_PERICENTER":54.6703,"MEAN_ANOMALY":305.5828,"EPHEMERIS_TYPE":0,"NORAD_CAT_ID":64231,"ELEMENT_SET_NO":999,"REV_AT_EPOCH":6099,"BSTAR":0.00062137083,"MEAN_MOTION_DOT":0.00024136,"MEAN_MOTION_DDOT":0},{"OBJECT_NAME":"GLOBAL-33","OBJECT_ID":"2025-267A","EPOCH":"2026-07-04T17:11:54.440448","CLASSIFICATION_TYPE":"U","MEAN_MOTION":15.37131097,"ECCENTRICITY":0.00090855,"INCLINATION":42.02,"RA_OF_ASC_NODE":314.2829,"ARG_OF_PERICENTER":9.2571,"MEAN_ANOMALY":350.8434,"EPHEMERIS_TYPE":0,"NORAD_CAT_ID":66554,"ELEMENT_SET_NO":999,"REV_AT_EPOCH":3474,"BSTAR":0.00063771303,"MEAN_MOTION_DOT":0.00023544,"MEAN_MOTION_DDOT":0},{"OBJECT_NAME":"GLOBAL-34","OBJECT_ID":"2026-043A","EPOCH":"2026-07-05T03:23:05.695296","CLASSIFICATION_TYPE":"U","MEAN_MOTION":15.3296251,"ECCENTRICITY":0.00020924,"INCLINATION":42.021,"RA_OF_ASC_NODE":116.9423,"ARG_OF_PERICENTER":18.1769,"MEAN_ANOMALY":341.9144,"EPHEMERIS_TYPE":0,"NORAD_CAT_ID":68098,"ELEMENT_SET_NO":999,"REV_AT_EPOCH":1858,"BSTAR":0.00055345108,"MEAN_MOTION_DOT":0.00017796,"MEAN_MOTION_DDOT":0}]}
